IRIDIUM 112             
1 41925U 17003J   25276.24585695  .00000438  00000+0  14946-3 0  9999
2 41925  86.4033 195.6290 0002145  88.7084 271.4358 14.34216355456443
IRIDIUM 111             
1 41926U 17003K   25275.32617740  .00000198  00000+0  63719-4 0  9991
2 41926  86.4042 196.0772 0002246  83.1458 276.9993 14.34221731456292
IRIDIUM 113             
1 42803U 17039A   25275.93406738  .00000551  00000+0  18973-3 0  9999
2 42803  86.3930  69.6909 0002142  95.6196 264.5244 14.34217296434313
IRIDIUM 123             
1 42804U 17039B   25276.25461565 -.00000057  00000+0 -27486-4 0  9998
2 42804  86.3915 101.0606 0002262  83.9477 276.1976 14.34217192433121
IRIDIUM 120             
1 42805U 17039C   25275.92771925  .00000073  00000+0  18840-4 0  9996
2 42805  86.3919  69.5092 0002163  83.2296 276.9146 14.34219297434301
IRIDIUM 115             
1 42806U 17039D   25275.83182645  .00000487  00000+0  13888-3 0  9997
2 42806  86.4457  69.6428 0002704  80.7253 279.4254 14.43283817437142
IRIDIUM 118             
1 42807U 17039E   25276.07702390  .00000139  00000+0  42728-4 0  9990
2 42807  86.3909 101.1341 0002176  94.2216 265.9228 14.34217453433096
IRIDIUM 117             
1 42808U 17039F   25276.02628237  .00000165  00000+0  51753-4 0  9990
2 42808  86.3909 101.1151 0002377  88.6156 271.5312 14.34217938433117
